{
  "type": "FeatureCollection",
  "note": "v1ドラフト。中国本土＋沿岸バッファ（渤海・黄海・東シナ海・台湾海峡・南シナ海）を大まかに覆う手作りの簡易ポリゴン。行政境界データ（Natural Earth等）を使った精緻化は未対応。近隣国・公海を意図的に多めに含んでいるため、MGP側はbboxでの粗い検索後にこのポリゴンでの中心点フィルタ、Copernicus側はこのポリゴンをそのままintersectsクエリに使用している。",
  "features": [
    {
      "type": "Feature",
      "properties": { "name": "china_msa_aoi_v1" },
      "geometry": {
        "type": "Polygon",
        "coordinates": [[
          [73.0, 40.0],
          [80.0, 46.0],
          [90.0, 50.0],
          [110.0, 53.0],
          [127.0, 53.0],
          [124.5, 43.0],
          [127.0, 39.0],
          [124.0, 33.0],
          [123.0, 26.0],
          [122.0, 22.0],
          [119.0, 10.0],
          [112.0, 4.0],
          [108.0, 6.0],
          [106.0, 10.0],
          [99.0, 22.0],
          [98.0, 28.0],
          [78.0, 30.0],
          [73.0, 40.0]
        ]]
      }
    }
  ]
}
